GRBBETA                 
1 60237U 24128C   26094.27098939  .00006865  00000+0  46958-3 0  9992
2 60237  61.9882 115.4834 0049050 119.1000 241.5017 15.06060339 95131
OOV-CUBE (TUBSAT-30)    
1 60240U 24128F   26094.25451486  .00003898  00000+0  29990-3 0  9994
2 60240  61.9933 123.3015 0052344 117.5940 243.0481 15.02418368 95009
ROBUSTA-3A (MEDITERRAN*)
1 60243U 24128J   26094.28635189  .00011354  00000+0  67704-3 0  9995
2 60243  61.9846 109.3530 0049505 112.8863 247.7469 15.10564648 95254
LASARSAT                
1 62391U 24247Q   26094.03099426  .00055577  00000+0  12740-2 0  9998
2 62391  44.9765 317.4987 0005379 237.3439 122.6930 15.42003564 71856
CROCUBE                 
1 62394U 24247T   26094.04048777  .00060086  00000+0  13160-2 0  9993
2 62394  44.9737 315.7943 0004954 235.6859 124.3561 15.43330823 71879
FORESAIL-1 PRIME        
1 66778U 25276DS  26094.25130966  .00009683  00000+0  47885-3 0  9999
2 66778  97.4237 168.9008 0002888  39.4110 320.7333 15.18026584 19184
KNACKSAT-2              
1 67683U 98067XZ  26093.95420513  .00065956  00000+0  99573-3 0  9995
2 67683  51.6305 306.1177 0010514 279.0913  80.8888 15.54059237  8716
