[{"OBJECT_NAME":"GRBBETA","OBJECT_ID":"2024-128C","EPOCH":"2026-04-04T06:30:13.483296","MEAN_MOTION":15.06060339,"ECCENTRICITY":0.004905,"INCLINATION":61.9882,"RA_OF_ASC_NODE":115.4834,"ARG_OF_PERICENTER":119.1,"MEAN_ANOMALY":241.5017,"EPHEMERIS_TYPE":0,"CLASSIFICATION_TYPE":"U","NORAD_CAT_ID":60237,"ELEMENT_SET_NO":999,"REV_AT_EPOCH":9513,"BSTAR":0.0004695791,"MEAN_MOTION_DOT":6.865e-5,"MEAN_MOTION_DDOT":0},{"OBJECT_NAME":"OOV-CUBE (TUBSAT-30)","OBJECT_ID":"2024-128F","EPOCH":"2026-04-04T06:06:30.083904","MEAN_MOTION":15.02418368,"ECCENTRICITY":0.00523445,"INCLINATION":61.9933,"RA_OF_ASC_NODE":123.3015,"ARG_OF_PERICENTER":117.594,"MEAN_ANOMALY":243.0481,"EPHEMERIS_TYPE":0,"CLASSIFICATION_TYPE":"U","NORAD_CAT_ID":60240,"ELEMENT_SET_NO":999,"REV_AT_EPOCH":9500,"BSTAR":0.00029989697,"MEAN_MOTION_DOT":3.898e-5,"MEAN_MOTION_DDOT":0},{"OBJECT_NAME":"ROBUSTA-3A (MEDITERRANEE)","OBJECT_ID":"2024-128J","EPOCH":"2026-04-04T06:52:20.803296","MEAN_MOTION":15.10564648,"ECCENTRICITY":0.00495051,"INCLINATION":61.9846,"RA_OF_ASC_NODE":109.353,"ARG_OF_PERICENTER":112.8863,"MEAN_ANOMALY":247.7469,"EPHEMERIS_TYPE":0,"CLASSIFICATION_TYPE":"U","NORAD_CAT_ID":60243,"ELEMENT_SET_NO":999,"REV_AT_EPOCH":9525,"BSTAR":0.00067703674,"MEAN_MOTION_DOT":0.00011354,"MEAN_MOTION_DDOT":0},{"OBJECT_NAME":"LASARSAT","OBJECT_ID":"2024-247Q","EPOCH":"2026-04-04T00:44:37.904064","MEAN_MOTION":15.42003564,"ECCENTRICITY":0.00053797,"INCLINATION":44.9765,"RA_OF_ASC_NODE":317.4987,"ARG_OF_PERICENTER":237.3439,"MEAN_ANOMALY":122.693,"EPHEMERIS_TYPE":0,"CLASSIFICATION_TYPE":"U","NORAD_CAT_ID":62391,"ELEMENT_SET_NO":999,"REV_AT_EPOCH":7185,"BSTAR":0.0012739779,"MEAN_MOTION_DOT":0.00055577,"MEAN_MOTION_DDOT":0},{"OBJECT_NAME":"CROCUBE","OBJECT_ID":"2024-247T","EPOCH":"2026-04-04T00:58:18.143328","MEAN_MOTION":15.43330823,"ECCENTRICITY":0.00049544,"INCLINATION":44.9737,"RA_OF_ASC_NODE":315.7943,"ARG_OF_PERICENTER":235.6859,"MEAN_ANOMALY":124.3561,"EPHEMERIS_TYPE":0,"CLASSIFICATION_TYPE":"U","NORAD_CAT_ID":62394,"ELEMENT_SET_NO":999,"REV_AT_EPOCH":7187,"BSTAR":0.0013160337,"MEAN_MOTION_DOT":0.00060086,"MEAN_MOTION_DDOT":0},{"OBJECT_NAME":"FORESAIL-1 PRIME","OBJECT_ID":"2025-276DS","EPOCH":"2026-04-04T06:01:53.154624","MEAN_MOTION":15.18026584,"ECCENTRICITY":0.00028882,"INCLINATION":97.4237,"RA_OF_ASC_NODE":168.9008,"ARG_OF_PERICENTER":39.411,"MEAN_ANOMALY":320.7333,"EPHEMERIS_TYPE":0,"CLASSIFICATION_TYPE":"U","NORAD_CAT_ID":66778,"ELEMENT_SET_NO":999,"REV_AT_EPOCH":1918,"BSTAR":0.00047885452,"MEAN_MOTION_DOT":9.683e-5,"MEAN_MOTION_DDOT":0},{"OBJECT_NAME":"KNACKSAT-2","OBJECT_ID":"1998-067XZ","EPOCH":"2026-04-03T22:54:03.323232","MEAN_MOTION":15.54059237,"ECCENTRICITY":0.00105141,"INCLINATION":51.6305,"RA_OF_ASC_NODE":306.1177,"ARG_OF_PERICENTER":279.0913,"MEAN_ANOMALY":80.8888,"EPHEMERIS_TYPE":0,"CLASSIFICATION_TYPE":"U","NORAD_CAT_ID":67683,"ELEMENT_SET_NO":999,"REV_AT_EPOCH":871,"BSTAR":0.00099572606,"MEAN_MOTION_DOT":0.00065956,"MEAN_MOTION_DDOT":0}]
